H1 CPF 01  gfz 2022 08 27 12  7392 tandemx   
H2 1003001  6202 36605    2022 08 27 12 59 42 2022 09 01 00 00 42   120 1 1  0 0 0
H9
10 0 59822  82062.000000  0   -2110759.817   6537983.602   -523437.765
10 0 59822  82182.000000  0   -1902498.126   6469638.320  -1418814.508
10 0 59822  82302.000000  0   -1663246.020   6284437.380  -2289246.423
10 0 59822  82422.000000  0   -1399224.919   5985222.458  -3119466.775
10 0 59822  82542.000000  0   -1117014.688   5576939.798  -3894947.393
10 0 59822  82662.000000  0    -823399.914   5066547.600  -4602153.185
10 0 59822  82782.000000  0    -525215.580   4462885.143  -5228774.463
10 0 59822  82902.000000  0    -229195.529   3776509.485  -5763934.625
10 0 59822  83022.000000  0      58173.176   3019501.404  -6198370.552
10 0 59822  83142.000000  0     330786.221   2205245.374  -6524581.603
10 0 59822  83262.000000  0     583045.612   1348190.801  -6736947.160
10 0 59822  83382.000000  0     809969.866    463597.028  -6831814.388
10 0 59822  83502.000000  0    1007288.538   -432734.372  -6807554.044
10 0 59822  83622.000000  0    1171519.757  -1324736.371  -6664584.543
10 0 59822  83742.000000  0    1300029.863  -2196356.520  -6405364.056
10 0 59822  83862.000000  0    1391075.262  -3031837.824  -6034353.858
10 0 59822  83982.000000  0    1443825.617  -3815999.801  -5557951.663
10 0 59822  84102.000000  0    1458366.704  -4534514.786  -4984391.236
10 0 59822  84222.000000  0    1435684.726  -5174171.087  -4323610.456
10 0 59822  84342.000000  0    1377630.979  -5723122.161  -3587090.920
10 0 59822  84462.000000  0    1286866.561  -6171115.823  -2787666.835
10 0 59822  84582.000000  0    1166789.580  -6509696.914  -1939306.969
10 0 59822  84702.000000  0    1021445.816  -6732379.354  -1056872.366
10 0 59822  84822.000000  0     855423.550  -6834781.786   -155853.654
10 0 59822  84942.000000  0     673736.013  -6814722.260    747906.252
10 0 59822  85062.000000  0     481694.442  -6672270.225   1638497.963
10 0 59822  85182.000000  0     284774.651  -6409753.664   2500235.127
10 0 59822  85302.000000  0      88480.605  -6031719.223   3317940.981
10 0 59822  85422.000000  0    -101792.036  -5544845.852   4077222.646
10 0 59822  85542.000000  0    -280888.391  -4957818.537   4764727.576
10 0 59822  85662.000000  0    -444019.205  -4281163.729   5368380.122
10 0 59822  85782.000000  0    -586875.032  -3527050.850   5877592.390
10 0 59822  85902.000000  0    -705727.807  -2709063.272   6283446.926
10 0 59822  86022.000000  0    -797517.406  -1841945.714   6578845.350
10 0 59822  86142.000000  0    -859921.762   -941335.629   6758625.611
10 0 59822  86262.000000  0    -891409.819    -23479.593   6819648.184
10 0 59822  86382.000000  0    -891276.214    895060.515   6760847.763
99
